GLOBALSTAR M035         
1 25851U 99037A   25331.95206595 -.00000055  00000+0  33924-3 0  9998
2 25851  51.9976  49.7506 0013401 244.5265 286.1241 11.04539985114351
GLOBALSTAR M032         
1 25852U 99037B   25331.97256945  .00000059  00000+0  40341-2 0  9998
2 25852  51.9940 223.6083 0013448  80.9220 279.3101 11.19072912153125
GLOBALSTAR M051         
1 25853U 99037C   25331.79077005 -.00000101  00000+0 -71577-3 0  9993
2 25853  51.9826   6.2166 0000466 147.7737 212.3102 11.42205924151085
GLOBALSTAR M030         
1 25854U 99037D   25331.89338693 -.00000062  00000+0  26576-3 0  9992
2 25854  51.9839 161.6643 0003138   4.1170 355.9672 11.55109634168968
GLOBALSTAR M048         
1 25872U 99041A   25331.90605969 -.00000044  00000+0  70354-3 0  9995
2 25872  51.9387 307.3032 0013309 106.4092 291.3471 11.33860403143559
GLOBALSTAR M026         
1 25873U 99041B   25331.86878438 -.00000074  00000+0 -38083-3 0  9991
2 25873  51.9965 166.1701 0001961 142.4909 230.7470 11.06848009166610
GLOBALSTAR M043         
1 25874U 99041C   25331.57444251 -.00000060  00000+0  25292-3 0  9994
2 25874  51.9419  62.2410 0013478 226.2957 237.2966 11.25696480141270
GLOBALSTAR M028         
1 25875U 99041D   25331.43769191 -.00000077  00000+0  15708-3 0  9992
2 25875  51.9634  66.2751 0063686  66.5745 294.1796 12.50591910210606
